STARLINK-31630          
1 59271U 24050T   26068.56880718 -.00002063  00000+0 -57526-4 0  9991
2 59271  53.1600 168.5079 0001409  92.3163 267.7999 15.30200807110710
STARLINK-34353          
1 64278U 25120Y   26068.43282751  .00025439  00000+0  86822-3 0  9992
2 64278  53.1580 118.1088 0001239  75.5303 284.5835 15.30194970 43872
